STARLINK-3623           
1 51772U 22017E   23330.70617236  .00001073  00000+0  85496-4 0  9993
2 51772  53.2168 123.0180 0001409  89.4025 270.7128 15.08850847 98208
STARLINK-3624           
1 51773U 22017F   23330.64731432  .00017727  00000+0  11299-2 0  9993
2 51773  53.2175 123.2784 0001854 100.3142 259.8059 15.08813961 98157
STARLINK-3629           
1 51774U 22017G   23330.43385710  .00002005  00000+0  14401-3 0  9997
2 51774  53.2157 124.2373 0001285 126.4921 233.6189 15.08847451 96620
STARLINK-3620           
1 51775U 22017H   23330.57737416  .00001240  00000+0  95995-4 0  9995
2 51775  53.2178 123.5978 0001457  91.8043 268.3116 15.08846672 96683
STARLINK-3608           
1 51776U 22017J   23330.69513589  .00000531  00000+0  51442-4 0  9993
2 51776  53.2166 123.0656 0001491  92.0226 268.0937 15.08846398 98150
STARLINK-3625           
1 51777U 22017K   23330.69977335  .00005372  00000+0  35513-3 0  9995
2 51777  53.2146 123.0170 0001412 100.5633 259.5518 15.08861271 98168
STARLINK-3615           
1 51778U 22017L   23330.76963692  .00002013  00000+0  14446-3 0  9996
2 51778  53.2169 112.6037 0001506 103.0939 257.0221 15.08850983 98310
STARLINK-3611           
1 51779U 22017M   23330.69611809 -.00002656  00000+0 -14894-3 0  9991
2 51779  53.2161 123.1123 0001660  68.4770 291.6399 15.08821976 98156
STARLINK-3617           
1 51780U 22017N   23330.61417469  .00002053  00000+0  14699-3 0  9993
2 51780  53.2140 123.4177 0001368 107.1398 252.9744 15.08847741 96508
STARLINK-3580           
1 51781U 22017P   23330.41913201  .00000663  00000+0  59731-4 0  9999
2 51781  53.2169 124.2665 0001628 111.5325 248.5841 15.08844636 96474
STARLINK-3616           
1 51782U 22017Q   23330.44125809  .00002678  00000+0  18628-3 0  9999
2 51782  53.2149 134.2170 0001279 101.9808 258.1328 15.08843974 96242
STARLINK-3628           
1 51783U 22017R   23330.62250596 -.00001290  00000+0 -62960-4 0  9992
2 51783  53.2149 123.4339 0001738 135.4975 224.6157 15.08833400 96507
STARLINK-3632           
1 51784U 22017S   23330.76781863  .00000888  00000+0  73836-4 0  9998
2 51784  53.2167 132.7395 0001370  96.1008 264.0140 15.08845921 98036
STARLINK-3646           
1 51785U 22017T   23330.74397795 -.00004002  00000+0 -23372-3 0  9997
2 51785  53.2169 122.8154 0001339  74.6082 285.5058 15.08808797 98216
STARLINK-3638           
1 51786U 22017U   23330.56173703  .00001108  00000+0  87687-4 0  9991
2 51786  53.2149 133.6641 0001446  94.5076 265.6081 15.08845496 96354
STARLINK-3619           
1 51787U 22017V   23330.44397985  .00000713  00000+0  62866-4 0  9992
2 51787  53.2175 134.1945 0001541 102.7159 257.4006 15.08847332 96332
STARLINK-3641           
1 51788U 22017W   23330.48445839  .00000852  00000+0  71611-4 0  9991
2 51788  53.2164 134.0137 0001541 101.5283 258.5882 15.08842729 97989
STARLINK-3639           
1 51789U 22017X   23330.43293901  .00001151  00000+0  90373-4 0  9997
2 51789  53.2165 134.2436 0001378  99.1636 260.9512 15.08844527 96330
STARLINK-3631           
1 51790U 22017Y   23330.67950826 -.00001548  00000+0 -79242-4 0  9995
2 51790  53.2151 133.1343 0000706 109.4718 250.6350 15.08832416 98064
STARLINK-3602           
1 51791U 22017Z   23330.62429914  .00001282  00000+0  98615-4 0  9998
2 51791  53.2143 133.3838 0001327  94.9995 265.1148 15.08843744 98008
STARLINK-3626           
1 51792U 22017AA  23330.60589794  .00000677  00000+0  60598-4 0  9996
2 51792  53.2156 133.4675 0001435  91.7224 268.3933 15.08845666 98050
STARLINK-3633           
1 51793U 22017AB  23330.48813755 -.00000142  00000+0  91941-5 0  9995
2 51793  53.2143 133.9947 0001300  83.9826 276.1314 15.08849774 98038
STARLINK-3573           
1 51794U 22017AC  23330.59853736  .00001039  00000+0  83355-4 0  9995
2 51794  53.2160 133.4987 0001504  95.4206 264.6958 15.08847207 98005
STARLINK-3586           
1 51795U 22017AD  23330.67678623  .00000633  00000+0  57824-4 0  9996
2 51795  53.2160 133.2329 0001396  97.7531 262.3620 15.08843107 98016
STARLINK-3630           
1 51796U 22017AE  23330.45502250  .00002606  00000+0  18173-3 0  9990
2 51796  53.2170 134.1464 0001430  95.0081 265.1074 15.08851875 97977
STARLINK-3627           
1 51797U 22017AF  23330.66166296  .00000323  00000+0  26968-4 0  9996
2 51797  53.1526 105.7926 0000945  50.7154 309.3928 15.23811259 98449
STARLINK-3634           
1 51798U 22017AG  23330.45134034  .00002696  00000+0  18739-3 0  9990
2 51798  53.2156 134.1657 0001673  80.1027 280.0154 15.08845503 98024
STARLINK-3637           
1 51799U 22017AH  23330.72734471  .00002456  00000+0  17232-3 0  9993
2 51799  53.2159 132.9233 0001386  82.5108 277.6042 15.08848601 98021
STARLINK-3600           
1 51800U 22017AJ  23330.91667824  .00328478  51722-4  99107-3 0  9992
2 51800  53.2031  69.9297 0007852 357.9502  46.5432 15.91660449 98955
STARLINK-3592           
1 51801U 22017AK  23330.72365897  .00001008  00000+0  81376-4 0  9992
2 51801  53.2174 132.9391 0001490  86.4708 273.6455 15.08844709 98021
STARLINK-3557           
1 51802U 22017AL  23330.74205579  .00000804  00000+0  68602-4 0  9995
2 51802  53.2167 132.8447 0001285  92.1447 267.9693 15.08843362 98025
STARLINK-3544           
1 51803U 22017AM  23330.77884417 -.00013604  00000+0 -83803-3 0  9996
2 51803  53.2143 132.6916 0001315  83.8969 276.2173 15.08849705 98022
STARLINK-3601           
1 51804U 22017AN  23330.72548973  .00003519  00000+0  23894-3 0  9992
2 51804  53.2153 112.9276 0001262  91.4233 268.6903 15.08857264 98355
STARLINK-3605           
1 51805U 22017AP  23330.59670502  .00002702  00000+0  18774-3 0  9996
2 51805  53.2155 113.5865 0001717  70.9371 289.1807 15.08851172 98329
STARLINK-3581           
1 51806U 22017AQ  23330.60313507  .00000773  00000+0  66641-4 0  9991
2 51806  53.2164 123.4760 0001545 105.9896 254.1267 15.08844979 98042
STARLINK-3606           
1 51807U 22017AR  23330.61049559  .00000755  00000+0  65531-4 0  9993
2 51807  53.2156 123.4445 0001393 107.0139 253.1006 15.08846907 98197
STARLINK-3609           
1 51808U 22017AS  23330.59577626  .00000922  00000+0  76021-4 0  9994
2 51808  53.2176 123.5112 0001562 110.1944 249.9216 15.08844072 98040
STARLINK-3607           
1 51809U 22017AT  23330.74027024 -.00002297  00000+0 -12633-3 0  9991
2 51809  53.2171 122.8744 0001160 105.8036 254.3084 15.08819241 98162
STARLINK-3613           
1 51810U 22017AU  23330.64087971  .00001614  00000+0  11945-3 0  9994
2 51810  53.2167 113.5307 0001108  95.1242 264.9876 15.08845740 98285
STARLINK-3569           
1 51811U 22017AV  23330.59945688  .00001120  00000+0  88433-4 0  9996
2 51811  53.2159 123.4951 0001284  86.9165 273.1974 15.08845209 98044
STARLINK-3610           
1 51812U 22017AW  23330.60773309  .00001171  00000+0  91649-4 0  9997
2 51812  53.2167 113.4606 0001443  86.7759 273.3398 15.08848376 98167
STARLINK-3552           
1 51813U 22017AX  23330.72182369  .00001332  00000+0  10179-3 0  9998
2 51813  53.2162 112.9693 0001362  93.1450 266.9698 15.08840014 98299
STARLINK-3599           
1 51814U 22017AY  23330.66660639  .00001805  00000+0  13142-3 0  9991
2 51814  53.2172 113.1919 0001262  80.1726 279.9409 15.08860630 98296
STARLINK-3604           
1 51815U 22017AZ  23330.67029022 -.00001927  00000+0 -10301-3 0  9999
2 51815  53.2171 113.1758 0001225  78.1708 281.9421 15.08841375 98295
STARLINK-3603           
1 51816U 22017BA  23330.68596722  .00005480  00000+0  36172-3 0  9997
2 51816  53.2180 113.3480 0001491  93.7597 266.3565 15.08884023 98343
STARLINK-3542           
1 51852U 22022A   23330.82394498  .00000446  00000+0  46092-4 0  9995
2 51852  53.2143 162.4871 0001422  86.9497 273.1658 15.08841892 97129
STARLINK-3539           
1 51853U 22022B   23330.79077614  .00000200  00000+0  30625-4 0  9993
2 51853  53.2132 162.2498 0001076 116.1569 243.9534 15.08842259 97072
STARLINK-3541           
1 51854U 22022C   23330.82026147  .00001363  00000+0  10370-3 0  9998
2 51854  53.2145 162.5032 0001432 108.1555 251.9593 15.08845397 97133
STARLINK-3545           
1 51855U 22022D   23330.80553014  .00001556  00000+0  11580-3 0  9993
2 51855  53.2143 162.4927 0001478 124.1856 235.9276 15.08848903 97086
STARLINK-3568           
1 51856U 22022E   23330.81754279  .00001009  00000+0  81435-4 0  9991
2 51856  53.2156 162.5297 0001209  72.5384 287.5740 15.08844476 97165
STARLINK-3571           
1 51857U 22022F   23330.80649823  .00001297  00000+0  99568-4 0  9994
2 51857  53.2140 162.5762 0001489 118.3679 241.7463 15.08848889 97135
STARLINK-3563           
1 51858U 22022G   23330.80922588  .00000294  00000+0  36590-4 0  9999
2 51858  53.2149 162.5538 0001593 120.9399 239.1750 15.08842015 97135
STARLINK-3560           
1 51859U 22022H   23330.82582165  .00000951  00000+0  77847-4 0  9995
2 51859  53.2150 152.4919 0001281  99.7143 260.3994 15.08844833 97274
STARLINK-3559           
1 51860U 22022J   23330.83221968  .00001318  00000+0  10085-3 0  9997
2 51860  53.2148 152.4533 0001314  99.8723 260.2418 15.08846807 97236
STARLINK-3562           
1 51861U 22022K   23329.95638024  .00001926  00000+0  13906-3 0  9994
2 51861  53.2158 156.3821 0001417  97.2597 262.8556 15.08845929 97017
STARLINK-3508           
1 51862U 22022L   23330.49734337  .00000111  00000+0  25040-4 0  9998
2 51862  53.2167 153.9565 0001476 100.3903 259.7256 15.08841546 97235
STARLINK-3555           
1 51863U 22022M   23330.54518207  .00000629  00000+0  57620-4 0  9994
2 51863  53.2151 153.7392 0001422  97.7602 262.3551 15.08843475 97186
STARLINK-3548           
1 51864U 22022N   23330.81381304  .00000799  00000+0  68263-4 0  9994
2 51864  53.2158 152.4547 0001186  90.5574 269.5554 15.08843706 97277
STARLINK-3503           
1 51865U 22022P   23330.73654069  .00000849  00000+0  71449-4 0  9993
2 51865  53.2156 152.8791 0001327 104.3860 255.7279 15.08841632 97211
